OBJECT_NAME,NORAD_CAT_ID,EPOCH,MEAN_MOTION,ECCENTRICITY,INCLINATION,RA_OF_ASC_NODE,ARG_OF_PERICENTER,MEAN_ANOMALY,BSTAR,SEMIMAJOR_AXIS,PERIOD,APOAPSIS,PERIAPSIS
STARLINK-1834,46781,2025-02-18 18:21:12.191616,16.37178269,0.0008056,53.0338,206.1565,298.7193,199.2178,0.0010569,6551.456,87.956,178.599,168.044
DELTA 1 R/B(2),10723,2025-02-18 22:51:31.559040,15.421577,0.0444015,29.2134,302.8095,140.3973,137.9509,0.00052975,6817.879,93.376,742.469,137.02
FALCON 9 R/B,62878,2025-02-19 02:13:45.786720,16.47531719,0.0031063,53.1436,118.6486,5.766,67.2814,0.00011008,6523.98,87.403,166.111,125.58
OBJECT B,44487,2025-02-19 04:13:30.284544,16.25055223,0.0008513,97.364,135.4831,270.7756,89.256,0.002054,6583.999,88.612,211.469,200.259
STARLINK-2312,47980,2025-02-19 06:55:48.378432,16.42854918,0.0004153,53.0254,131.6211,326.5442,142.8457,0.00075555,6536.356,87.652,160.936,155.506
ASTROCAST-0204,48952,2025-02-19 07:56:48.172704,16.40905188,0.0012699,97.631,220.9624,275.9646,84.0206,0.00093423,6541.533,87.756,171.705,155.091
OBJECT A,53299,2025-02-19 11:59:45.837312,16.51387101,0.0009917,97.2683,143.4361,244.1726,239.5307,0.00012586,6513.822,87.199,142.147,129.228
STARLINK-2337,47880,2025-02-20 11:09:04.057920,16.49041975,0.0009381,53.0213,150.5044,341.0086,77.5127,0.00025867,6519.997,87.323,147.978,135.745
LEMUR 2 DAISY-HARPER,43889,2025-02-20 13:59:47.946048,16.33665975,0.0007864,97.5738,346.4333,144.5778,215.6041,0.0017499,6560.843,88.145,187.868,177.549
STARLINK-2320,47866,2025-02-20 17:04:36.259392,16.39654297,0.000574,53.0333,147.0546,330.3354,152.2174,0.00083579,6544.859,87.823,170.481,162.968
IRIDIUM 33 DEB,34086,2025-02-20 17:10:48.930240,15.99049353,0.0020166,86.321,159.8471,316.6637,43.3062,0.023523,6655.192,90.054,290.478,263.636
STARLINK-2321,47867,2025-02-20 17:11:53.311200,16.41860985,0.000385,53.0399,129.2812,346.5518,154.8988,0.00079172,6538.994,87.705,163.376,158.341
FLOCK 4Q 8,58279,2025-02-20 20:21:49.307040,16.46208647,0.001209,97.4067,137.0563,249.8647,110.1356,0.0003549,6527.476,87.474,157.232,141.449
STARLINK-1917,46767,2025-02-20 20:56:06.300960,16.44255836,0.0006083,53.0359,210.6534,285.6716,192.1437,0.0005377,6532.643,87.578,158.482,150.534
ELECTRON R/B,62933,2025-02-20 21:10:11.146080,16.39810484,0.005454,97.9272,109.5562,197.5517,275.2945,0.00027058,6544.444,87.815,202.002,130.615
STARLINK-1671,46554,2025-02-20 23:26:20.684256,16.46467522,0.0007991,53.0141,6.2732,213.4312,224.9404,0.00051823,6526.791,87.46,153.872,143.441
STARLINK-1009,44715,2025-02-20 23:29:11.817600,16.41172483,0.0004716,53.0299,55.4341,191.0814,254.1824,0.0,6540.822,87.742,165.772,159.603
OBJECT C,43664,2025-02-20 23:31:24.747456,16.43315481,0.0009029,97.2805,93.0345,242.3668,117.6717,0.00055359,6535.135,87.628,162.9,151.099
CZ-3B R/B,62189,2025-02-21 00:55:08.091840,9.34586791,0.3177569,51.1975,84.9873,246.9654,81.8039,0.0,9520.405,154.079,6167.444,117.095
THORAD AGENA D DEB,4190,2025-02-21 08:03:04.442976,16.35790429,0.0009344,69.9747,346.9478,201.4829,158.6009,0.0021895,6555.162,88.031,183.152,170.901
STARLINK-31367,59408,2025-02-21 10:06:00.878400,15.99287143,0.0017198,42.9868,28.1097,164.2762,333.0208,0.01046,6654.532,90.04,287.842,264.953
STARLINK-1711,46374,2025-02-21 13:37:09.622272,16.57297914,0.0022831,53.0159,161.6574,220.1008,239.0289,0.00029044,6498.325,86.888,135.027,105.354
STARLINK-1177,45078,2025-02-21 14:39:49.929120,16.27108355,0.0004042,53.0349,126.5809,23.1033,88.8546,0.0011231,6578.459,88.501,202.983,197.665
STARLINK-31664,59514,2025-02-21 15:40:54.742368,16.19301859,0.0006205,42.9906,300.6195,253.328,196.6168,0.0046761,6599.585,88.927,225.545,217.355
STARLINK-2325,47979,2025-02-21 17:48:03.430368,16.47951837,0.0002508,53.0417,141.3512,9.0203,133.4946,0.00036665,6522.872,87.381,146.373,143.101
STARLINK-1857,47144,2025-02-21 18:40:32.278368,16.42090499,0.0002831,53.0217,151.3852,307.0857,194.921,0.00082062,6538.384,87.693,162.1,158.398
DMSP 5D-2 F13 DEB,42317,2025-02-21 19:15:07.429248,15.28328947,0.0013719,98.7137,156.1729,286.5074,73.4654,0.027379,6858.944,94.221,490.219,471.4
STARLINK-1883,46785,2025-02-21 19:58:48.277344,16.46053685,0.0009362,53.0295,178.4151,340.4592,156.6762,0.00042096,6527.885,87.482,155.862,143.639
STARLINK-1846,47136,2025-02-21 21:35:37.327776,16.3775781,0.0008015,53.0267,169.1348,312.4421,147.5466,0.00083205,6549.911,87.925,177.026,166.526
STARLINK-2006,47601,2025-02-21 23:22:27.859584,16.40608852,0.0006826,53.0339,230.0618,277.2493,225.8823,0.00063798,6542.32,87.772,168.651,159.72
STARLINK-1571,46081,2025-02-22 00:42:51.574176,16.43085236,0.0013991,53.0452,345.1882,156.9575,309.6254,0.0001,6535.745,87.64,166.754,148.466
CZ-4 DEB,26755,2025-02-22 06:23:37.790304,15.81415219,0.0012923,98.3068,321.4811,92.4118,267.8627,0.0087843,6704.575,91.058,335.104,317.775
STARLINK-1374,45545,2025-02-22 07:51:34.077600,16.44852345,0.0006709,53.0216,323.3699,267.107,195.769,0.00036935,6531.063,87.546,157.31,148.547
NOAA 17 DEB,48612,2025-02-22 13:08:35.444544,15.78152307,0.0009657,98.6529,83.9851,194.565,165.5336,0.021162,6713.813,91.246,342.161,329.194
YAOGAN 13,37941,2025-02-22 13:50:50.428320,16.47853151,0.0005618,97.676,67.0606,253.2552,205.8061,0.00028551,6523.132,87.386,148.662,141.332
FENGYUN 1C DEB,31765,2025-02-23 02:51:13.042944,15.28823954,0.0028948,99.0513,272.2885,272.6144,215.2402,0.040743,6857.464,94.19,499.18,459.478
COSMOS 2251 DEB,35592,2025-02-23 05:22:34.962528,15.89215222,0.0017341,73.9765,229.0964,38.2002,322.0456,0.003316,6682.619,90.611,316.072,292.896
STARLINK-1755,46591,2025-02-23 08:00:55.177344,16.39746537,0.0001102,53.0275,11.5065,356.8762,80.6842,0.00082297,6544.614,87.818,167.2,165.758
DELTA 1 DEB,10204,2025-02-23 12:50:30.422976,16.10970588,0.0018768,28.7982,150.3935,25.5685,334.5863,0.011302,6622.319,89.387,256.613,231.755
OBJECT F,55253,2025-02-23 16:29:38.073408,16.38691279,0.0009818,97.2572,137.0352,275.0688,84.949,0.00080887,6547.423,87.875,175.716,162.86
STARLINK-1291,45393,2025-02-23 20:01:07.490208,16.43063456,0.0011711,53.0335,354.8888,137.5091,315.1982,0.0020696,6535.803,87.641,165.322,150.014
DELTA 1 DEB,35533,2025-02-24 00:21:23.809824,15.73969912,0.0014769,99.6827,77.2276,157.7872,202.4027,0.033655,6725.701,91.488,357.499,337.633
CZ-6A DEB,54494,2025-02-24 04:30:00.793152,15.6887784,0.0028982,98.9293,148.3842,295.4385,64.3873,0.031838,6740.246,91.785,381.646,342.577
STARLINK-1391,45750,2025-02-24 05:13:08.675328,16.53084791,0.0010985,53.0362,68.3608,219.3255,225.4729,0.0001,6509.362,87.11,138.377,124.076
STARLINK-1637,46133,2025-02-24 08:42:16.413408,16.33591677,0.0006243,53.0155,126.8384,357.647,52.6884,0.0011493,6561.042,88.149,187.003,178.811
STARLINK-1341,45534,2025-02-24 10:30:32.031936,16.30148902,0.0007722,53.0256,312.9274,209.9078,324.9146,0.0008969,6570.277,88.335,197.215,187.068
YODAKA,62295,2025-02-24 13:40:39.859392,16.30980865,0.0008198,51.6144,133.7689,359.2402,0.8607,0.0015183,6568.042,88.29,195.292,184.523
STARLINK-2265,48002,2025-02-24 16:39:17.176320,16.41481802,0.0002919,53.0251,117.6451,330.6802,122.7901,0.00083915,6540.001,87.726,163.775,159.957
STARLINK-2335,47878,2025-02-24 18:24:44.251776,16.44194757,0.0004535,53.0265,127.1078,231.2136,230.7975,0.0007112,6532.805,87.581,157.632,151.707
CZ-6A DEB,60789,2025-02-24 19:39:19.098720,16.26196516,0.0004091,89.0265,327.2652,197.0041,163.1125,0.0063042,6580.918,88.55,205.475,200.091
MINOTAUR 4 DEB,52981,2025-02-24 21:18:28.414368,15.6905525,0.0008741,53.9161,113.7937,56.188,303.9978,0.0039392,6739.738,91.775,367.494,355.712
MDASAT-1B,51050,2025-02-24 22:04:54.842880,16.45128402,0.0012483,97.3189,137.9096,268.8482,91.139,0.00033496,6530.333,87.531,160.35,144.046
OBJECT A,62263,2025-02-24 22:39:39.627360,16.44675548,0.00101,58.5193,27.4829,280.856,115.0565,0.00030193,6531.531,87.555,159.993,146.8
SL-8 DEB,6396,2025-02-24 23:42:28.464480,16.20673105,0.0007473,74.0533,57.3572,239.1616,120.8899,0.0036867,6595.862,88.852,222.656,212.798
STARLINK-2229,47992,2025-02-25 03:02:09.268224,16.49971129,2.03e-05,53.0174,109.8274,75.1219,22.0479,0.0003472,6517.549,87.274,139.546,139.281
STARLINK-1378,45548,2025-02-25 10:25:26.040288,16.37409185,0.0007118,53.024,312.3938,223.0942,306.1564,0.00074662,6550.841,87.944,177.368,168.043
FENGYUN 1C DEB,36713,2025-02-25 12:05:16.285344,15.52581181,0.005328,98.4086,331.2374,359.104,1.0105,0.0058276,6787.33,92.749,445.358,373.032
PROGRESS MS-28,60450,2025-02-25 12:47:27.890880,15.49435515,0.0005896,51.6375,140.0419,314.7988,171.5478,0.00046973,6796.513,92.937,422.386,414.371
SATCOM 3 DEB *,32992,2025-02-25 14:34:14.181312,1.78290476,0.4670485,13.1437,312.3523,354.0087,328.2287,0.0,28728.729,807.671,35768.304,8932.884
STARLINK-1977,47575,2025-02-25 15:41:08.614752,16.45856586,0.0007459,53.0251,249.5781,291.255,148.1463,0.00045029,6528.406,87.492,155.141,145.402
STARLINK-1906,46765,2025-02-25 16:36:58.164768,16.38797151,0.0007789,53.0328,178.8714,311.5506,188.5221,0.00091567,6547.141,87.869,174.106,163.907
STARLINK-5301,55270,2025-02-25 16:38:05.956800,16.49176874,0.0007783,69.9792,258.9976,255.1062,221.8403,0.00023167,6519.641,87.316,146.58,136.432
OBJECT Y,43898,2025-02-25 22:18:10.717344,16.47394377,0.0006056,96.9959,293.5941,271.5993,88.4618,0.00036098,6524.343,87.411,150.159,142.257
ELECTRON R/B,63028,2025-02-26 00:20:35.861280,16.4307016,0.0052966,58.9964,75.2812,270.2695,186.1265,0.00030531,6535.785,87.641,192.268,123.033
STARLINK-31653,59485,2025-02-26 02:13:08.869728,16.18649718,0.0012667,42.9796,279.0662,266.5974,231.2367,0.0013567,6601.358,88.963,231.585,214.861
COSMOS 2251 DEB,34033,2025-02-26 03:10:11.347392,15.88196808,0.0019144,73.9424,317.9722,178.1437,181.987,0.027379,6685.475,90.669,320.139,294.542
STARLINK-1732,46584,2025-02-26 08:12:20.176416,16.44361266,3.59e-05,53.0161,356.994,79.4488,12.7939,0.00060477,6532.364,87.572,154.463,153.994
SL-16 DEB,22544,2025-02-26 10:04:52.643136,15.9140326,0.0022352,71.1936,221.7893,318.4905,41.4612,0.039315,6676.492,90.486,313.28,283.434
